{
  "type": "FeatureCollection",
  "metadata": {
    "projection": "WGS84",
    "feature_count": 82,
    "filtered_count": 1
  },
  "features": [
    {
      "type": "Feature",
      "geometry": {
        "type": "Point",
        "coordinates": [
          -70.64354723358485,
          -33.43515306708146
        ]
      },
      "properties": {
        "id": "LOC_0001",
        "name": "Museo Nacional de Bellas Artes (MNBA)",
        "type": "Location",
        "city": "Santiago",
        "country": null,
        "wikidata": "Q1138865",
        "description": null,
        "why_relevant": null,
        "micro_summary": null,
        "is_core": false,
        "parent_org_id": "ORG_0002",
        "is_user_primary": false,
        "precision_type": "exact"
      }
    },
    {
      "type": "Feature",
      "geometry": {
        "type": "Point",
        "coordinates": [
          -70.68037428569774,
          -33.44198933167025
        ]
      },
      "properties": {
        "id": "LOC_0002",
        "name": "Museo de Arte Contemporáneo (MAC Quinta Normal)",
        "type": "Location",
        "city": "Santiago",
        "country": null,
        "wikidata": "Q3329153",
        "description": null,
        "why_relevant": null,
        "micro_summary": null,
        "is_core": false,
        "parent_org_id": "ORG_0001",
        "is_user_primary": true,
        "precision_type": "exact"
      }
    },
    {
      "type": "Feature",
      "geometry": {
        "type": "Point",
        "coordinates": [
          -70.65069471823976,
          -33.44432093080183
        ]
      },
      "properties": {
        "id": "LOC_0003",
        "name": "Casa Central Universidad de Chile / Archivo Andrés Bello",
        "type": "Location",
        "city": "Santiago",
        "country": null,
        "wikidata": "Q232438",
        "description": null,
        "why_relevant": null,
        "micro_summary": null,
        "is_core": false,
        "parent_org_id": "ORG_0034",
        "is_user_primary": false,
        "precision_type": "exact"
      }
    },
    {
      "type": "Feature",
      "geometry": {
        "type": "Point",
        "coordinates": [
          -70.5516,
          -33.4975
        ]
      },
      "properties": {
        "id": "LOC_0004",
        "name": "Universidad Adolfo Ibáñez (Campus Peñalolén)",
        "type": "Location",
        "city": "Santiago",
        "country": null,
        "wikidata": "Q1465225",
        "description": null,
        "why_relevant": null,
        "micro_summary": null,
        "is_core": false,
        "parent_org_id": "ORG_0004",
        "is_user_primary": false,
        "precision_type": "exact"
      }
    },
    {
      "type": "Feature",
      "geometry": {
        "type": "Point",
        "coordinates": [
          2.139053349698989,
          41.38154687801553
        ]
      },
      "properties": {
        "id": "LOC_0005",
        "name": "Universitat de Barcelona (FIMA / Plaça Universitat)",
        "type": "Location",
        "city": "Barcelona",
        "country": null,
        "wikidata": "Q219615",
        "description": null,
        "why_relevant": null,
        "micro_summary": null,
        "is_core": false,
        "parent_org_id": "ORG_0005",
        "is_user_primary": false,
        "precision_type": "exact"
      }
    },
    {
      "type": "Feature",
      "geometry": {
        "type": "Point",
        "coordinates": [
          -70.6475,
          -33.4216
        ]
      },
      "properties": {
        "id": "LOC_0006",
        "name": "Centro Nacional de Conservación y Restauración (CNCR)",
        "type": "Location",
        "city": "Santiago",
        "country": null,
        "wikidata": "Q5761404",
        "description": null,
        "why_relevant": null,
        "micro_summary": null,
        "is_core": false,
        "parent_org_id": "ORG_0006",
        "is_user_primary": false,
        "precision_type": "exact"
      }
    },
    {
      "type": "Feature",
      "geometry": {
        "type": "Point",
        "coordinates": [
          -70.6538,
          -33.4428
        ]
      },
      "properties": {
        "id": "LOC_0007",
        "name": "Ministerio de las Culturas, las Artes y el Patrimonio (MINCAP / FONDART)",
        "type": "Location",
        "city": "Santiago",
        "country": null,
        "wikidata": "Q50682283",
        "description": null,
        "why_relevant": null,
        "micro_summary": null,
        "is_core": false,
        "parent_org_id": "ORG_0008",
        "is_user_primary": false,
        "precision_type": "exact"
      }
    },
    {
      "type": "Feature",
      "geometry": {
        "type": "Point",
        "coordinates": [
          -70.6615,
          -33.4445
        ]
      },
      "properties": {
        "id": "LOC_0008",
        "name": "Universidad Alberto Hurtado (UAH)",
        "type": "Location",
        "city": "Santiago",
        "country": null,
        "wikidata": "Q7894229",
        "description": null,
        "why_relevant": null,
        "micro_summary": null,
        "is_core": false,
        "parent_org_id": "ORG_0009",
        "is_user_primary": false,
        "precision_type": "exact"
      }
    },
    {
      "type": "Feature",
      "geometry": {
        "type": "Point",
        "coordinates": [
          -70.6789,
          -33.4468
        ]
      },
      "properties": {
        "id": "LOC_0009",
        "name": "IDEA - Universidad de Santiago de Chile (USACH)",
        "type": "Location",
        "city": "Santiago",
        "country": null,
        "wikidata": "Q1138767",
        "description": null,
        "why_relevant": null,
        "micro_summary": null,
        "is_core": false,
        "parent_org_id": "ORG_0010",
        "is_user_primary": false,
        "precision_type": "exact"
      }
    },
    {
      "type": "Feature",
      "geometry": {
        "type": "Point",
        "coordinates": [
          -70.6394,
          -33.4392
        ]
      },
      "properties": {
        "id": "LOC_0010",
        "name": "Museo de Arte Popular Americano Tomás Lago (GAM / MAPA)",
        "type": "Location",
        "city": "Santiago",
        "country": null,
        "wikidata": "Q6034177",
        "description": null,
        "why_relevant": null,
        "micro_summary": null,
        "is_core": false,
        "parent_org_id": "ORG_0011",
        "is_user_primary": false,
        "precision_type": "exact"
      }
    },
    {
      "type": "Feature",
      "geometry": {
        "type": "Point",
        "coordinates": [
          -70.6667,
          -33.4503
        ]
      },
      "properties": {
        "id": "LOC_0011",
        "name": "Museo de la Solidaridad Salvador Allende (MSSA)",
        "type": "Location",
        "city": "Santiago",
        "country": null,
        "wikidata": "Q6034346",
        "description": null,
        "why_relevant": null,
        "micro_summary": null,
        "is_core": false,
        "parent_org_id": "ORG_0012",
        "is_user_primary": false,
        "precision_type": "exact"
      }
    },
    {
      "type": "Feature",
      "geometry": {
        "type": "Point",
        "coordinates": [
          -3.7038,
          40.4168
        ]
      },
      "properties": {
        "id": "LOC_0012",
        "name": "MICIU / Ministerio de Cultura (Madrid)",
        "type": "Location",
        "city": "Madrid",
        "country": null,
        "wikidata": "Q54865181",
        "description": null,
        "why_relevant": null,
        "micro_summary": null,
        "is_core": false,
        "parent_org_id": "ORG_0013",
        "is_user_primary": false,
        "precision_type": "exact"
      }
    },
    {
      "type": "Feature",
      "geometry": {
        "type": "Point",
        "coordinates": [
          -71.1167,
          42.377
        ]
      },
      "properties": {
        "id": "LOC_0013",
        "name": "Harvard University (Cambridge)",
        "type": "Location",
        "city": "Cambridge, MA",
        "country": null,
        "wikidata": "Q13371",
        "description": null,
        "why_relevant": null,
        "micro_summary": null,
        "is_core": false,
        "parent_org_id": "ORG_0015",
        "is_user_primary": false,
        "precision_type": "exact"
      }
    },
    {
      "type": "Feature",
      "geometry": {
        "type": "Point",
        "coordinates": [
          -77.0369,
          -12.0601
        ]
      },
      "properties": {
        "id": "LOC_0015",
        "name": "Museo de Arte de Lima (MALI)",
        "type": "Location",
        "city": "Lima",
        "country": null,
        "wikidata": "Q6940540",
        "description": null,
        "why_relevant": null,
        "micro_summary": null,
        "is_core": false,
        "parent_org_id": "ORG_0018",
        "is_user_primary": false,
        "precision_type": "exact"
      }
    },
    {
      "type": "Feature",
      "geometry": {
        "type": "Point",
        "coordinates": [
          -46.63368673405564,
          -23.53422346887216
        ]
      },
      "properties": {
        "id": "LOC_0016",
        "name": "Pinacoteca do Estado de São Paulo",
        "type": "Location",
        "city": "São Paulo",
        "country": null,
        "wikidata": "Q1464673",
        "description": null,
        "why_relevant": null,
        "micro_summary": null,
        "is_core": false,
        "parent_org_id": "ORG_0019",
        "is_user_primary": false,
        "precision_type": "exact"
      }
    },
    {
      "type": "Feature",
      "geometry": {
        "type": "Point",
        "coordinates": [
          -68.5364,
          -31.5375
        ]
      },
      "properties": {
        "id": "LOC_0017",
        "name": "Museo Provincial de Bellas Artes Franklin Rawson",
        "type": "Location",
        "city": "San Juan",
        "country": null,
        "wikidata": "Q16609935",
        "description": null,
        "why_relevant": null,
        "micro_summary": null,
        "is_core": false,
        "parent_org_id": "ORG_0020",
        "is_user_primary": false,
        "precision_type": "exact"
      }
    },
    {
      "type": "Feature",
      "geometry": {
        "type": "Point",
        "coordinates": [
          -58.5286,
          -34.5796
        ]
      },
      "properties": {
        "id": "LOC_0018",
        "name": "IIPC-TAREA, Universidad Nacional de San Martín (UNSAM)",
        "type": "Location",
        "city": "Buenos Aires",
        "country": null,
        "wikidata": "Q1486",
        "description": null,
        "why_relevant": null,
        "micro_summary": null,
        "is_core": false,
        "parent_org_id": "ORG_0021",
        "is_user_primary": false,
        "precision_type": "exact"
      }
    },
    {
      "type": "Feature",
      "geometry": {
        "type": "Point",
        "coordinates": [
          -70.665,
          -33.445
        ]
      },
      "properties": {
        "id": "LOC_0019",
        "name": "LOM Ediciones (Barrio Concha y Toro)",
        "type": "Location",
        "city": "Santiago",
        "country": null,
        "wikidata": "Q5961605",
        "description": null,
        "why_relevant": null,
        "micro_summary": null,
        "is_core": false,
        "parent_org_id": "ORG_0022",
        "is_user_primary": false,
        "precision_type": "exact"
      }
    },
    {
      "type": "Feature",
      "geometry": {
        "type": "Point",
        "coordinates": [
          -90.51453891900114,
          14.63829337820492
        ]
      },
      "properties": {
        "id": "LOC_0020",
        "name": "Centro Cultural de España en Guatemala",
        "type": "Location",
        "city": "Ciudad de Guatemala",
        "country": null,
        "wikidata": "Q5761159",
        "description": null,
        "why_relevant": null,
        "micro_summary": null,
        "is_core": false,
        "parent_org_id": "ORG_0023",
        "is_user_primary": false,
        "precision_type": "exact"
      }
    },
    {
      "type": "Feature",
      "geometry": {
        "type": "Point",
        "coordinates": [
          -70.682,
          -33.4445
        ]
      },
      "properties": {
        "id": "LOC_0021",
        "name": "Centro Cultural Matucana 100 (M100)",
        "type": "Location",
        "city": "Santiago",
        "country": null,
        "wikidata": "Q5763160",
        "description": null,
        "why_relevant": null,
        "micro_summary": null,
        "is_core": false,
        "parent_org_id": "ORG_0024",
        "is_user_primary": false,
        "precision_type": "exact"
      }
    },
    {
      "type": "Feature",
      "geometry": {
        "type": "Point",
        "coordinates": [
          -70.6,
          -33.415
        ]
      },
      "properties": {
        "id": "LOC_0022",
        "name": "Sala de Arte CCU (Vitacura)",
        "type": "Location",
        "city": "Santiago",
        "country": null,
        "wikidata": "Q2931448",
        "description": null,
        "why_relevant": null,
        "micro_summary": null,
        "is_core": false,
        "parent_org_id": "ORG_0018",
        "is_user_primary": false,
        "precision_type": "exact"
      }
    },
    {
      "type": "Feature",
      "geometry": {
        "type": "Point",
        "coordinates": [
          -70.67955889415381,
          -33.43993915856012
        ]
      },
      "properties": {
        "id": "LOC_0023",
        "name": "Museo de la Memoria y los Derechos Humanos (MMDH)",
        "type": "Location",
        "city": "Santiago",
        "country": null,
        "wikidata": "Q2006767",
        "description": null,
        "why_relevant": null,
        "micro_summary": null,
        "is_core": false,
        "parent_org_id": "ORG_0026",
        "is_user_primary": false,
        "precision_type": "exact"
      }
    },
    {
      "type": "Feature",
      "geometry": {
        "type": "Point",
        "coordinates": [
          -71.59618571625025,
          -35.84964236458835
        ]
      },
      "properties": {
        "id": "LOC_0024",
        "name": "Museo de Arte y Artesanía de Linares",
        "type": "Location",
        "city": "Linares",
        "country": null,
        "wikidata": "Q6033842",
        "description": null,
        "why_relevant": null,
        "micro_summary": null,
        "is_core": false,
        "parent_org_id": "ORG_0027",
        "is_user_primary": false,
        "precision_type": "exact"
      }
    },
    {
      "type": "Feature",
      "geometry": {
        "type": "Point",
        "coordinates": [
          -73.0394315045538,
          -36.82713507857586
        ]
      },
      "properties": {
        "id": "LOC_0025",
        "name": "Pinacoteca Universidad de Concepción (Casa del Arte)",
        "type": "Location",
        "city": "Concepción",
        "country": null,
        "wikidata": "Q5047879",
        "description": null,
        "why_relevant": null,
        "micro_summary": null,
        "is_core": false,
        "parent_org_id": "ORG_0028",
        "is_user_primary": false,
        "precision_type": "exact"
      }
    },
    {
      "type": "Feature",
      "geometry": {
        "type": "Point",
        "coordinates": [
          -73.0503,
          -36.8261
        ]
      },
      "properties": {
        "id": "LOC_0026",
        "name": "Catedral Metropolitana de la Santísima Concepción",
        "type": "Location",
        "city": "Concepción",
        "country": null,
        "wikidata": "Q1050516",
        "description": null,
        "why_relevant": null,
        "micro_summary": null,
        "is_core": false,
        "parent_org_id": null,
        "is_user_primary": false,
        "precision_type": "exact"
      }
    },
    {
      "type": "Feature",
      "geometry": {
        "type": "Point",
        "coordinates": [
          -72.3323,
          -38.2305
        ]
      },
      "properties": {
        "id": "LOC_0027",
        "name": "Colección Privada Victoria (La Araucanía)",
        "type": "Location",
        "city": "Victoria",
        "country": null,
        "wikidata": "Q201016",
        "description": null,
        "why_relevant": null,
        "micro_summary": null,
        "is_core": false,
        "parent_org_id": null,
        "is_user_primary": false,
        "precision_type": "centroid"
      }
    },
    {
      "type": "Feature",
      "geometry": {
        "type": "Point",
        "coordinates": [
          -70.6569,
          -33.4522
        ]
      },
      "properties": {
        "id": "LOC_0028",
        "name": "Palacio Cousiño (Santiago Centro)",
        "type": "Location",
        "city": "Santiago",
        "country": null,
        "wikidata": "Q7126294",
        "description": null,
        "why_relevant": null,
        "micro_summary": null,
        "is_core": false,
        "parent_org_id": null,
        "is_user_primary": false,
        "precision_type": "exact"
      }
    },
    {
      "type": "Feature",
      "geometry": {
        "type": "Point",
        "coordinates": [
          -70.7575,
          -33.51
        ]
      },
      "properties": {
        "id": "LOC_0029",
        "name": "Museo del Carmen de Maipú",
        "type": "Location",
        "city": "Maipú",
        "country": null,
        "wikidata": "Q6034388",
        "description": null,
        "why_relevant": null,
        "micro_summary": null,
        "is_core": false,
        "parent_org_id": "ORG_0018",
        "is_user_primary": false,
        "precision_type": "exact"
      }
    },
    {
      "type": "Feature",
      "geometry": {
        "type": "Point",
        "coordinates": [
          -70.6,
          -33.38
        ]
      },
      "properties": {
        "id": "LOC_0030",
        "name": "Colección Privada Vitacura",
        "type": "Location",
        "city": "Santiago",
        "country": null,
        "wikidata": "Q2931448",
        "description": null,
        "why_relevant": null,
        "micro_summary": null,
        "is_core": false,
        "parent_org_id": null,
        "is_user_primary": false,
        "precision_type": "centroid"
      }
    },
    {
      "type": "Feature",
      "geometry": {
        "type": "Point",
        "coordinates": [
          -70.7833,
          -33.6333
        ]
      },
      "properties": {
        "id": "LOC_0031",
        "name": "Colección Privada Calera de Tango",
        "type": "Location",
        "city": "Calera de Tango",
        "country": null,
        "wikidata": "Q3691",
        "description": null,
        "why_relevant": null,
        "micro_summary": null,
        "is_core": false,
        "parent_org_id": null,
        "is_user_primary": false,
        "precision_type": "centroid"
      }
    },
    {
      "type": "Feature",
      "geometry": {
        "type": "Point",
        "coordinates": [
          -70.6333,
          -33.4
        ]
      },
      "properties": {
        "id": "LOC_0032",
        "name": "Colección Privada Recoleta",
        "type": "Location",
        "city": "Santiago",
        "country": null,
        "wikidata": "Q56125",
        "description": null,
        "why_relevant": null,
        "micro_summary": null,
        "is_core": false,
        "parent_org_id": null,
        "is_user_primary": false,
        "precision_type": "centroid"
      }
    },
    {
      "type": "Feature",
      "geometry": {
        "type": "Point",
        "coordinates": [
          -70.65,
          -33.3667
        ]
      },
      "properties": {
        "id": "LOC_0033",
        "name": "Colección Privada Huechuraba",
        "type": "Location",
        "city": "Santiago",
        "country": null,
        "wikidata": "Q14424",
        "description": null,
        "why_relevant": null,
        "micro_summary": null,
        "is_core": false,
        "parent_org_id": null,
        "is_user_primary": false,
        "precision_type": "centroid"
      }
    },
    {
      "type": "Feature",
      "geometry": {
        "type": "Point",
        "coordinates": [
          -70.6167,
          -33.4333
        ]
      },
      "properties": {
        "id": "LOC_0034",
        "name": "Colección Privada Providencia",
        "type": "Location",
        "city": "Santiago",
        "country": null,
        "wikidata": "Q51594",
        "description": null,
        "why_relevant": null,
        "micro_summary": null,
        "is_core": false,
        "parent_org_id": null,
        "is_user_primary": false,
        "precision_type": "centroid"
      }
    },
    {
      "type": "Feature",
      "geometry": {
        "type": "Point",
        "coordinates": [
          -70.5833,
          -33.4167
        ]
      },
      "properties": {
        "id": "LOC_0035",
        "name": "Colección Privada Las Condes",
        "type": "Location",
        "city": "Santiago",
        "country": null,
        "wikidata": "Q14484",
        "description": null,
        "why_relevant": null,
        "micro_summary": null,
        "is_core": false,
        "parent_org_id": null,
        "is_user_primary": false,
        "precision_type": "centroid"
      }
    },
    {
      "type": "Feature",
      "geometry": {
        "type": "Point",
        "coordinates": [
          -70.8167,
          -33.5667
        ]
      },
      "properties": {
        "id": "LOC_0036",
        "name": "Colección Privada Padre Hurtado",
        "type": "Location",
        "city": "Padre Hurtado",
        "country": null,
        "wikidata": "Q51079",
        "description": null,
        "why_relevant": null,
        "micro_summary": null,
        "is_core": false,
        "parent_org_id": "ORG_0009",
        "is_user_primary": false,
        "precision_type": "centroid"
      }
    },
    {
      "type": "Feature",
      "geometry": {
        "type": "Point",
        "coordinates": [
          -70.7333,
          -34.0667
        ]
      },
      "properties": {
        "id": "LOC_0037",
        "name": "Colección Privada Graneros",
        "type": "Location",
        "city": "Graneros",
        "country": null,
        "wikidata": "Q13063",
        "description": null,
        "why_relevant": null,
        "micro_summary": null,
        "is_core": false,
        "parent_org_id": null,
        "is_user_primary": false,
        "precision_type": "centroid"
      }
    },
    {
      "type": "Feature",
      "geometry": {
        "type": "Point",
        "coordinates": [
          -71.2,
          -34.6667
        ]
      },
      "properties": {
        "id": "LOC_0038",
        "name": "Colección Privada Nancagua",
        "type": "Location",
        "city": "Nancagua",
        "country": null,
        "wikidata": "Q51048",
        "description": null,
        "why_relevant": null,
        "micro_summary": null,
        "is_core": false,
        "parent_org_id": null,
        "is_user_primary": false,
        "precision_type": "centroid"
      }
    },
    {
      "type": "Feature",
      "geometry": {
        "type": "Point",
        "coordinates": [
          -99.1332,
          19.4326
        ]
      },
      "properties": {
        "id": "LOC_0039",
        "name": "Museo Nacional de San Carlos (Ciudad de México)",
        "type": "Location",
        "city": "Ciudad de México",
        "country": null,
        "wikidata": "Q6940509",
        "description": null,
        "why_relevant": null,
        "micro_summary": null,
        "is_core": false,
        "parent_org_id": "ORG_0039",
        "is_user_primary": false,
        "precision_type": "exact"
      }
    },
    {
      "type": "Feature",
      "geometry": {
        "type": "Point",
        "coordinates": [
          -46.6333,
          -23.5505
        ]
      },
      "properties": {
        "id": "LOC_0040",
        "name": "Universidade Federal de São Paulo (UNIFESP)",
        "type": "Location",
        "city": "São Paulo",
        "country": null,
        "wikidata": "Q1142270",
        "description": null,
        "why_relevant": null,
        "micro_summary": null,
        "is_core": false,
        "parent_org_id": "ORG_0030",
        "is_user_primary": false,
        "precision_type": "exact"
      }
    },
    {
      "type": "Feature",
      "geometry": {
        "type": "Point",
        "coordinates": [
          -57.5426,
          -38.0055
        ]
      },
      "properties": {
        "id": "LOC_0041",
        "name": "Universidad Nacional de Mar del Plata (UNMDP)",
        "type": "Location",
        "city": "Mar del Plata",
        "country": null,
        "wikidata": "Q3551676",
        "description": null,
        "why_relevant": null,
        "micro_summary": null,
        "is_core": false,
        "parent_org_id": "ORG_0032",
        "is_user_primary": false,
        "precision_type": "exact"
      }
    },
    {
      "type": "Feature",
      "geometry": {
        "type": "Point",
        "coordinates": [
          -70.5935286335842,
          -33.44584429023698
        ]
      },
      "properties": {
        "id": "LOC_0042",
        "name": "Campus Oriente UC",
        "type": "Location",
        "city": "Santiago",
        "country": null,
        "wikidata": "Q287900",
        "description": null,
        "why_relevant": null,
        "micro_summary": null,
        "is_core": false,
        "parent_org_id": "ORG_0033",
        "is_user_primary": false,
        "precision_type": "exact"
      }
    },
    {
      "type": "Feature",
      "geometry": {
        "type": "Point",
        "coordinates": [
          -70.6506,
          -33.4372
        ]
      },
      "properties": {
        "id": "LOC_0043",
        "name": "Universidad Andrés Bello (UNAB Bellavista / República)",
        "type": "Location",
        "city": "Santiago",
        "country": null,
        "wikidata": "Q7894220",
        "description": null,
        "why_relevant": null,
        "micro_summary": null,
        "is_core": false,
        "parent_org_id": "ORG_0034",
        "is_user_primary": false,
        "precision_type": "exact"
      }
    },
    {
      "type": "Feature",
      "geometry": {
        "type": "Point",
        "coordinates": [
          -70.65,
          -33.45
        ]
      },
      "properties": {
        "id": "LOC_0044",
        "name": "CENFOTO UDP (Barrio Universitario)",
        "type": "Location",
        "city": "Santiago",
        "country": null,
        "wikidata": "Q50682284",
        "description": null,
        "why_relevant": null,
        "micro_summary": null,
        "is_core": false,
        "parent_org_id": "ORG_0035",
        "is_user_primary": false,
        "precision_type": "exact"
      }
    },
    {
      "type": "Feature",
      "geometry": {
        "type": "Point",
        "coordinates": [
          -99.1332,
          19.4326
        ]
      },
      "properties": {
        "id": "LOC_0045",
        "name": "Instituto Mexicano de Curaduría y Restauración (IMCR)",
        "type": "Location",
        "city": "Ciudad de México",
        "country": null,
        "wikidata": null,
        "description": null,
        "why_relevant": null,
        "micro_summary": null,
        "is_core": false,
        "parent_org_id": "ORG_0036",
        "is_user_primary": false,
        "precision_type": "exact"
      }
    },
    {
      "type": "Feature",
      "geometry": {
        "type": "Point",
        "coordinates": [
          -70.653,
          -33.439
        ]
      },
      "properties": {
        "id": "LOC_0046",
        "name": "ISUCH - Universidad de Chile",
        "type": "Location",
        "city": "Santiago",
        "country": null,
        "wikidata": null,
        "description": null,
        "why_relevant": null,
        "micro_summary": null,
        "is_core": false,
        "parent_org_id": "ORG_0003",
        "is_user_primary": false,
        "precision_type": "exact"
      }
    },
    {
      "type": "Feature",
      "geometry": {
        "type": "Point",
        "coordinates": [
          -70.65,
          -33.444
        ]
      },
      "properties": {
        "id": "LOC_0047",
        "name": "Instituto de Seguridad Laboral (ISL)",
        "type": "Location",
        "city": "Santiago",
        "country": null,
        "wikidata": "Q5918342",
        "description": null,
        "why_relevant": null,
        "micro_summary": null,
        "is_core": false,
        "parent_org_id": "ORG_0038",
        "is_user_primary": false,
        "precision_type": "exact"
      }
    },
    {
      "type": "Feature",
      "geometry": {
        "type": "Point",
        "coordinates": [
          -70.64569885871492,
          -33.43553605588056
        ]
      },
      "properties": {
        "id": "LOC_0048",
        "name": "Centro de Estudios Judaicos, Universidad de Chile",
        "type": "Location",
        "city": "Santiago",
        "country": null,
        "wikidata": "Q232438",
        "description": null,
        "why_relevant": null,
        "micro_summary": null,
        "is_core": false,
        "parent_org_id": "ORG_0037",
        "is_user_primary": false,
        "precision_type": "exact"
      }
    },
    {
      "type": "Feature",
      "geometry": {
        "type": "Point",
        "coordinates": [
          -70.6439,
          -33.4352
        ]
      },
      "properties": {
        "id": "LOC_0049",
        "name": "Biblioteca Nacional Digital / Biblioteca Nacional de Chile",
        "type": "Location",
        "city": "Santiago",
        "country": null,
        "wikidata": "Q2478544",
        "description": null,
        "why_relevant": null,
        "micro_summary": null,
        "is_core": false,
        "parent_org_id": "ORG_0029",
        "is_user_primary": false,
        "precision_type": "exact"
      }
    },
    {
      "type": "Feature",
      "geometry": {
        "type": "Point",
        "coordinates": [
          -70.65409015407023,
          -33.4410215508963
        ]
      },
      "properties": {
        "id": "LOC_0050",
        "name": "Plaza de la Constitución (Santiago)",
        "type": "Location",
        "city": "Santiago",
        "country": null,
        "wikidata": "Q7203673",
        "description": null,
        "why_relevant": null,
        "micro_summary": null,
        "is_core": false,
        "parent_org_id": null,
        "is_user_primary": false,
        "precision_type": "approximate"
      }
    },
    {
      "type": "Feature",
      "geometry": {
        "type": "Point",
        "coordinates": [
          -73.04222691804569,
          -36.82410307907857
        ]
      },
      "properties": {
        "id": "LOC_0051",
        "name": "Artistas del Acero (Concepción)",
        "type": "Location",
        "city": "Concepción",
        "country": null,
        "wikidata": null,
        "description": null,
        "why_relevant": null,
        "micro_summary": null,
        "is_core": false,
        "parent_org_id": null,
        "is_user_primary": false,
        "precision_type": "exact"
      }
    },
    {
      "type": "Feature",
      "geometry": {
        "type": "Point",
        "coordinates": [
          -70.6329,
          -33.4385
        ]
      },
      "properties": {
        "id": "LOC_0052",
        "name": "Museo Benjamín Vicuña Mackenna",
        "type": "Location",
        "city": "Santiago",
        "country": null,
        "wikidata": "Q6033182",
        "description": null,
        "why_relevant": null,
        "micro_summary": null,
        "is_core": false,
        "parent_org_id": null,
        "is_user_primary": false,
        "precision_type": "exact"
      }
    },
    {
      "type": "Feature",
      "geometry": {
        "type": "Point",
        "coordinates": [
          -77.0369,
          38.9072
        ]
      },
      "properties": {
        "id": "LOC_0053",
        "name": "Washington D.C. (Exilio Rodrigo Rojas De Negri)",
        "type": "Location",
        "city": "Washington D.C.",
        "country": null,
        "wikidata": "Q61",
        "description": null,
        "why_relevant": null,
        "micro_summary": null,
        "is_core": false,
        "parent_org_id": null,
        "is_user_primary": false,
        "precision_type": "exact"
      }
    },
    {
      "type": "Feature",
      "geometry": {
        "type": "Point",
        "coordinates": [
          12.5673,
          41.8719
        ]
      },
      "properties": {
        "id": "LOC_0054",
        "name": "Roma / Florencia / Carrara (Italia - Redes Escultóricas)",
        "type": "Location",
        "city": "Roma / Florencia",
        "country": null,
        "wikidata": "Q38",
        "description": null,
        "why_relevant": null,
        "micro_summary": null,
        "is_core": false,
        "parent_org_id": null,
        "is_user_primary": false,
        "precision_type": "exact"
      }
    },
    {
      "type": "Feature",
      "geometry": {
        "type": "Point",
        "coordinates": [
          -88.7514,
          15.8286
        ]
      },
      "properties": {
        "id": "LOC_0055",
        "name": "Livingston (Guatemala - Red Prácticas de Reiteración)",
        "type": "Location",
        "city": "Livingston",
        "country": null,
        "wikidata": "Q954318",
        "description": null,
        "why_relevant": null,
        "micro_summary": null,
        "is_core": false,
        "parent_org_id": null,
        "is_user_primary": false,
        "precision_type": "exact"
      }
    },
    {
      "type": "Feature",
      "geometry": {
        "type": "Point",
        "coordinates": [
          -70.588,
          -33.398
        ]
      },
      "properties": {
        "id": "LOC_0056",
        "name": "Galería Isabel Croxatto (Vitacura)",
        "type": "Location",
        "city": "Santiago",
        "country": null,
        "wikidata": null,
        "description": null,
        "why_relevant": null,
        "micro_summary": null,
        "is_core": false,
        "parent_org_id": "ORG_0040",
        "is_user_primary": false,
        "precision_type": "exact"
      }
    },
    {
      "type": "Feature",
      "geometry": {
        "type": "Point",
        "coordinates": [
          -72.09909088922245,
          -36.60655467138508
        ]
      },
      "properties": {
        "id": "LOC_0057",
        "name": "CECAL UdeC (Chillán)",
        "type": "Location",
        "city": "Ñuble",
        "country": null,
        "wikidata": "Q113665601",
        "description": null,
        "why_relevant": null,
        "micro_summary": null,
        "is_core": false,
        "parent_org_id": null,
        "is_user_primary": false,
        "precision_type": "exact"
      }
    },
    {
      "type": "Feature",
      "geometry": {
        "type": "Point",
        "coordinates": [
          -3.7038,
          40.4168
        ]
      },
      "properties": {
        "id": "LOC_0059",
        "name": "Tabacalera, Calle de Embajadores 51",
        "type": "Location",
        "city": "Madrid",
        "country": null,
        "wikidata": "Q9256",
        "description": null,
        "why_relevant": null,
        "micro_summary": null,
        "is_core": false,
        "parent_org_id": null,
        "is_user_primary": false,
        "precision_type": "exact"
      }
    },
    {
      "type": "Feature",
      "geometry": {
        "type": "Point",
        "coordinates": [
          -70.59154788940485,
          -33.42121365946592
        ]
      },
      "properties": {
        "id": "LOC_0060",
        "name": "UAI Sede Presidente Errázuriz",
        "type": "Location",
        "city": "Chile",
        "country": null,
        "wikidata": null,
        "description": null,
        "why_relevant": null,
        "micro_summary": null,
        "is_core": false,
        "parent_org_id": null,
        "is_user_primary": true,
        "precision_type": ""
      }
    },
    {
      "type": "Feature",
      "geometry": {
        "type": "Point",
        "coordinates": [
          -70.5182663382937,
          -33.48439393710956
        ]
      },
      "properties": {
        "id": "LOC_0061",
        "name": "UAI Campus Peñalolén",
        "type": "Location",
        "city": "Chile",
        "country": null,
        "wikidata": null,
        "description": null,
        "why_relevant": null,
        "micro_summary": null,
        "is_core": false,
        "parent_org_id": null,
        "is_user_primary": true,
        "precision_type": ""
      }
    },
    {
      "type": "Feature",
      "geometry": {
        "type": "Point",
        "coordinates": [
          -70.59598366056628,
          -33.46665877200571
        ]
      },
      "properties": {
        "id": "LOC_0062",
        "name": "UChile Campus Juan Gomez Millas",
        "type": "Location",
        "city": "Chile",
        "country": null,
        "wikidata": null,
        "description": null,
        "why_relevant": null,
        "micro_summary": null,
        "is_core": false,
        "parent_org_id": null,
        "is_user_primary": true,
        "precision_type": ""
      }
    },
    {
      "type": "Feature",
      "geometry": {
        "type": "Point",
        "coordinates": [
          -70.59510712009342,
          -33.46513656821872
        ]
      },
      "properties": {
        "id": "LOC_0063",
        "name": "Centro de Estudios Árabes \"Eugenio Chahuán\", Universidad de Chile",
        "type": "Location",
        "city": "Santiago",
        "country": null,
        "wikidata": null,
        "description": null,
        "why_relevant": null,
        "micro_summary": null,
        "is_core": false,
        "parent_org_id": null,
        "is_user_primary": true,
        "precision_type": ""
      }
    },
    {
      "type": "Feature",
      "geometry": {
        "type": "Point",
        "coordinates": [
          -58.44653,
          -34.62815
        ]
      },
      "properties": {
        "id": "LOC_0064",
        "name": "CAIA / Universidad de Buenos Aires",
        "type": "Location",
        "city": "Buenos Aires",
        "country": null,
        "wikidata": null,
        "description": null,
        "why_relevant": null,
        "micro_summary": null,
        "is_core": false,
        "parent_org_id": "ORG_0031",
        "is_user_primary": false,
        "precision_type": "exact"
      }
    },
    {
      "type": "Feature",
      "geometry": {
        "type": "Point",
        "coordinates": [
          -70.6506,
          -33.4372
        ]
      },
      "properties": {
        "id": "PRJ_0001",
        "name": "Arquitectura Art Déco en Santiago centro (Folio 826072)",
        "type": "Project",
        "funder": "FONDART Regional",
        "role": "Investigador Responsable",
        "description": null,
        "nodo_origen": "Santiago, Chile",
        "escala_territorial": "Urbano",
        "concepto_espacial": "Patrimonio arquitectónico | Microhistoria urbana",
        "period_start": null,
        "period_end": null
      }
    },
    {
      "type": "Feature",
      "geometry": {
        "type": "Point",
        "coordinates": [
          -70.6439,
          -33.4352
        ]
      },
      "properties": {
        "id": "PRJ_0002",
        "name": "De mármoles y bronces entre el Mediterráneo y los Andes (FONDECYT 1241154)",
        "type": "Project",
        "funder": "ANID / FONDECYT Regular",
        "role": "Asistente de Investigación",
        "description": null,
        "nodo_origen": "Italia",
        "escala_territorial": "Transnacional",
        "concepto_espacial": "Redes transatlánticas | Circulación de modelos",
        "period_start": null,
        "period_end": null
      }
    },
    {
      "type": "Feature",
      "geometry": {
        "type": "Point",
        "coordinates": [
          -58.3816,
          -34.6037
        ]
      },
      "properties": {
        "id": "PRJ_0003",
        "name": "Premio Iberoamericano: Acciones y exhibiciones para descolonizar las narrativas",
        "type": "Project",
        "funder": "Fundación TyPA / Wikimedia Argentina",
        "role": "Autor Galardonado (Ensayo El canon revisitado)",
        "description": null,
        "nodo_origen": "Buenos Aires, Argentina",
        "escala_territorial": "Latinoamericano",
        "concepto_espacial": "Pensamiento decolonial | Desjerarquización del museo",
        "period_start": null,
        "period_end": null
      }
    },
    {
      "type": "Feature",
      "geometry": {
        "type": "Point",
        "coordinates": [
          -70.5516,
          -33.4975
        ]
      },
      "properties": {
        "id": "PRJ_0004",
        "name": "Comercio de arte en Chile 1811-1920 (FONDECYT 1230245)",
        "type": "Project",
        "funder": "ANID / FONDECYT Regular",
        "role": "Asistente de Investigación",
        "description": null,
        "nodo_origen": "Santiago, Chile",
        "escala_territorial": "Nacional",
        "concepto_espacial": "Geografía del mercado del arte",
        "period_start": null,
        "period_end": null
      }
    },
    {
      "type": "Feature",
      "geometry": {
        "type": "Point",
        "coordinates": [
          -70.6439,
          -33.4352
        ]
      },
      "properties": {
        "id": "PRJ_0005",
        "name": "Coleccionismo en Chile durante la segunda mitad del siglo XIX: Marcos Segundo Maturana",
        "type": "Project",
        "funder": "FAIP / SERPAT",
        "role": "Investigador Responsable",
        "description": null,
        "nodo_origen": "Santiago, Chile",
        "escala_territorial": "Nacional",
        "concepto_espacial": "Geografía del coleccionismo | Trazabilidad",
        "period_start": null,
        "period_end": null
      }
    },
    {
      "type": "Feature",
      "geometry": {
        "type": "Point",
        "coordinates": [
          -70.6439,
          -33.4352
        ]
      },
      "properties": {
        "id": "PRJ_0006",
        "name": "Ausencias y omisiones femeninas: Clara Filleul y Procesa Sarmiento en el taller Monvoisin",
        "type": "Project",
        "funder": "FAIP / DIBAM",
        "role": "Coinvestigador",
        "description": null,
        "nodo_origen": "Santiago, Chile",
        "escala_territorial": "Transnacional",
        "concepto_espacial": "Agencia femenina | Circulación Sur-Sur",
        "period_start": null,
        "period_end": null
      }
    },
    {
      "type": "Feature",
      "geometry": {
        "type": "Point",
        "coordinates": [
          -70.5516,
          -33.4975
        ]
      },
      "properties": {
        "id": "PRJ_0007",
        "name": "Cultures of reading and global intellectual communities in Latin American periodicals",
        "type": "Project",
        "funder": "Harvard University / Universidad Adolfo Ibáñez",
        "role": "Investigador Colaborador",
        "description": null,
        "nodo_origen": "Cambridge (MA)",
        "escala_territorial": "Internacional",
        "concepto_espacial": "Redes intelectuales globales",
        "period_start": null,
        "period_end": null
      }
    },
    {
      "type": "Feature",
      "geometry": {
        "type": "Point",
        "coordinates": [
          -70.6439,
          -33.4352
        ]
      },
      "properties": {
        "id": "PRJ_0008",
        "name": "Monvoisin en América (Nodo Central Chile)",
        "type": "Project",
        "funder": "MNBA | CNCR | MHN | UAI | UPLA",
        "role": "Investigador y Equipo Coordinador",
        "description": null,
        "nodo_origen": "Santiago / Valparaíso, Chile",
        "escala_territorial": "Continental",
        "concepto_espacial": "Red transnacional | Matriz",
        "period_start": null,
        "period_end": null
      }
    },
    {
      "type": "Feature",
      "geometry": {
        "type": "Point",
        "coordinates": [
          -68.5364,
          -31.5375
        ]
      },
      "properties": {
        "id": "PRJ_0008_N01",
        "name": "Monvoisin en América (Nodo Argentina - San Juan)",
        "type": "Project",
        "funder": "Museo Provincial Franklin Rawson / U. de San Juan",
        "role": "Equipo Coordinador Transnacional",
        "description": null,
        "nodo_origen": "San Juan, Argentina",
        "escala_territorial": "Continental",
        "concepto_espacial": "Escuela Cuyana | Discipulaje",
        "period_start": null,
        "period_end": null
      }
    },
    {
      "type": "Feature",
      "geometry": {
        "type": "Point",
        "coordinates": [
          -58.5286,
          -34.5796
        ]
      },
      "properties": {
        "id": "PRJ_0008_N02",
        "name": "Monvoisin en América (Nodo Argentina - Buenos Aires)",
        "type": "Project",
        "funder": "IIPC-TAREA, Universidad Nacional de San Martín",
        "role": "Equipo Coordinador Transnacional",
        "description": null,
        "nodo_origen": "Buenos Aires, Argentina",
        "escala_territorial": "Continental",
        "concepto_espacial": "Estudios materiales | Restauración",
        "period_start": null,
        "period_end": null
      }
    },
    {
      "type": "Feature",
      "geometry": {
        "type": "Point",
        "coordinates": [
          -77.0369,
          -12.0601
        ]
      },
      "properties": {
        "id": "PRJ_0008_N03",
        "name": "Monvoisin en América (Nodo Perú)",
        "type": "Project",
        "funder": "Museo de Arte de Lima (MALI)",
        "role": "Equipo Coordinador Transnacional",
        "description": null,
        "nodo_origen": "Lima, Perú",
        "escala_territorial": "Continental",
        "concepto_espacial": "Circulación de obras | Mercado",
        "period_start": null,
        "period_end": null
      }
    },
    {
      "type": "Feature",
      "geometry": {
        "type": "Point",
        "coordinates": [
          -46.6322,
          -23.534
        ]
      },
      "properties": {
        "id": "PRJ_0008_N04",
        "name": "Monvoisin en América (Nodo Brasil)",
        "type": "Project",
        "funder": "Pinacoteca do Estado de São Paulo",
        "role": "Equipo Coordinador Transnacional",
        "description": null,
        "nodo_origen": "São Paulo, Brasil",
        "escala_territorial": "Continental",
        "concepto_espacial": "Circulación transatlántica | Coleccionismo imperial",
        "period_start": null,
        "period_end": null
      }
    },
    {
      "type": "Feature",
      "geometry": {
        "type": "Point",
        "coordinates": [
          -70.6823,
          -33.4398
        ]
      },
      "properties": {
        "id": "PRJ_0009",
        "name": "Creación Archivo Fotográfico Rodrigo Rojas De Negri (FONDART Folio 84311)",
        "type": "Project",
        "funder": "Consejo Nacional de la Cultura y las Artes (CNCA) / FONDART",
        "role": "Investigador Responsable",
        "description": null,
        "nodo_origen": "Santiago, Chile",
        "escala_territorial": "Urbano",
        "concepto_espacial": "Memoria social | Micropolítica urbana",
        "period_start": null,
        "period_end": null
      }
    },
    {
      "type": "Feature",
      "geometry": {
        "type": "Point",
        "coordinates": [
          -70.682,
          -33.4414
        ]
      },
      "properties": {
        "id": "PRJ_0010",
        "name": "Salón de Estudiantes 2013 Desde el resto; (FVL-2011 + FDI-MinEducación)",
        "type": "Project",
        "funder": "Fondo Valentín Letelier / Universidad de Chile",
        "role": "Responsable General",
        "description": null,
        "nodo_origen": "Santiago, Chile",
        "escala_territorial": "Urbano",
        "concepto_espacial": "Descentralización institucional | Plataforma emergente",
        "period_start": null,
        "period_end": null
      }
    },
    {
      "type": "Feature",
      "geometry": {
        "type": "Point",
        "coordinates": [
          2.1734,
          41.3851
        ]
      },
      "properties": {
        "id": "PRJ_0011",
        "name": "Beca General MEC (Máster Universitario en Humanidades Digitales)",
        "type": "Project",
        "funder": "Ministerio de Educación y Formación Profesional (España)",
        "role": "Becario de Excelencia",
        "description": null,
        "nodo_origen": "Barcelona, España",
        "escala_territorial": "Transnacional",
        "concepto_espacial": "Polo de conocimiento | Especialización digital",
        "period_start": null,
        "period_end": null
      }
    },
    {
      "type": "Feature",
      "geometry": {
        "type": "Point",
        "coordinates": [
          -70.682,
          -33.4414
        ]
      },
      "properties": {
        "id": "PRJ_0012",
        "name": "Programa de educación Salón de Estudiantes 2013 (FDI-MINEDUC)",
        "type": "Project",
        "funder": "Fondo de Desarrollo Institucional / Ministerio de Educación",
        "role": "Co-responsable",
        "description": null,
        "nodo_origen": "Santiago, Chile",
        "escala_territorial": "Nacional",
        "concepto_espacial": "Democratización del arte | Plataforma educativa",
        "period_start": null,
        "period_end": null
      }
    },
    {
      "type": "Feature",
      "geometry": {
        "type": "Point",
        "coordinates": [
          -3.7038,
          40.4168
        ]
      },
      "properties": {
        "id": "PRJ_0013",
        "name": "Beca de Formación de Profesionales Iberoamericanos en el Sector Cultural",
        "type": "Project",
        "funder": "Ministerio de Educación, Cultura y Deporte (España)",
        "role": "Becario de Formación",
        "description": null,
        "nodo_origen": "Madrid, España",
        "escala_territorial": "Internacional",
        "concepto_espacial": "Gestión y movilidad internacional",
        "period_start": null,
        "period_end": null
      }
    },
    {
      "type": "Feature",
      "geometry": {
        "type": "Point",
        "coordinates": [
          -70.65,
          -33.444
        ]
      },
      "properties": {
        "id": "PRJ_0014",
        "name": "Beca de Inglés CORFO para Profesionales",
        "type": "Project",
        "funder": "CORFO / Duoc UC",
        "role": "Becario de Idiomas",
        "description": null,
        "nodo_origen": "Santiago, Chile",
        "escala_territorial": "Nacional",
        "concepto_espacial": "Perfeccionamiento idiomático",
        "period_start": null,
        "period_end": null
      }
    },
    {
      "type": "Feature",
      "geometry": {
        "type": "Point",
        "coordinates": [
          -70.682,
          -33.4414
        ]
      },
      "properties": {
        "id": "PRJ_0015",
        "name": "Becas de Excelencia Académica (Beca Bicentenario | Equidad | PAE)",
        "type": "Project",
        "funder": "Ministerio de Educación / Universidad de Chile",
        "role": "Becario de Excelencia Pregrado",
        "description": null,
        "nodo_origen": "Santiago, Chile",
        "escala_territorial": "Nacional",
        "concepto_espacial": "Reconocimiento y mérito académico",
        "period_start": null,
        "period_end": null
      }
    },
    {
      "type": "Feature",
      "geometry": {
        "type": "Point",
        "coordinates": [
          -70.665,
          -33.445
        ]
      },
      "properties": {
        "id": "PRJ_0016",
        "name": "S/T Revista de Fotografía Contemporánea (FONDART Nacional Folio 89451)",
        "type": "Project",
        "funder": "Consejo Nacional de la Cultura y las Artes (CNCA) / FONDART Nacional",
        "role": "Co-Editor | Gestor de Proyecto (Editora Principal: Montserrat Rojas Corradi)",
        "description": null,
        "nodo_origen": "Santiago, Chile",
        "escala_territorial": "Nacional | Latinoamericano",
        "concepto_espacial": "Plataforma editorial | Fomento y circulación de la fotografía contemporánea",
        "period_start": null,
        "period_end": null
      }
    }
  ]
}